NORAD_CAT_ID,OBJECT_NAME,OBJECT_TYPE,EPOCH,MEAN_MOTION,ECCENTRICITY,INCLINATION,RA_OF_ASC_NODE,ARG_OF_PERICENTER,MEAN_ANOMALY,BSTAR,MEAN_MOTION_DOT,MEAN_MOTION_DDOT,TLE_LINE0,TLE_LINE1,TLE_LINE2,SEMIMAJOR_AXIS,PERIOD,APOGEE,PERIGEE,DECAYED
52605.0,STARLINK-4000,PAYLOAD,2024-06-25 05:04:09,15.08835593,0.000166,53.2161,198.3218,86.4503,273.6679,0.00012494,1.701e-05,0.0,0 STARLINK-4000,1 52605U 22052H   24177.21121830  .00001701  00000-0  12494-3 0  9990,2 52605  53.2161 198.3218 0001660  86.4503 273.6679 15.08835593117184,6917.894,95.438,540.907,538.61,0.0
52605.0,STARLINK-4000,PAYLOAD,2024-06-25 08:14:55,15.08837576,0.0001704,53.2164,197.7271,88.4354,271.6833,0.00013546,1.868e-05,0.0,0 STARLINK-4000,1 52605U 22052H   24177.34369721  .00001868  00000-0  13546-3 0  9990,2 52605  53.2164 197.7271 0001704  88.4354 271.6833 15.08837576116838,6917.888,95.438,540.932,538.574,0.0
52605.0,STARLINK-4000,PAYLOAD,2024-06-26 06:30:19,15.08836456,0.0001416,53.2152,193.5566,81.709,278.4063,0.00033519,5.05e-05,0.0,0 STARLINK-4000,1 52605U 22052H   24178.27105384  .00005050  00000-0  33519-3 0  9995,2 52605  53.2152 193.5566 0001416  81.7090 278.4063 15.08836456117342,6917.891,95.438,540.736,538.777,0.0
52605.0,STARLINK-4000,PAYLOAD,2024-06-27 07:56:28,15.08848101,0.0001253,53.2141,188.7973,75.0363,285.0768,3.5036e-05,2.7e-06,0.0,0 STARLINK-4000,1 52605U 22052H   24179.33089105  .00000270  00000-0  35036-4 0  9991,2 52605  53.2141 188.7973 0001253  75.0363 285.0768 15.08848101117500,6917.856,95.437,540.587,538.854,0.0
52605.0,STARLINK-4000,PAYLOAD,2024-06-27 17:28:47,15.08845798,0.0001235,53.2139,187.013,80.5073,279.6059,1.3396e-05,-7.5e-07,0.0,0 STARLINK-4000,1 52605U 22052H   24179.72833104 -.00000075  00000-0  13396-4 0  9999,2 52605  53.2139 187.0130 0001235  80.5073 279.6059 15.08845798117199,6917.863,95.437,540.582,538.873,0.0
52605.0,STARLINK-4000,PAYLOAD,2024-06-28 04:36:28,15.08857626,0.0001138,53.2121,184.9289,65.9508,294.1603,0.00013456,1.855e-05,0.0,0 STARLINK-4000,1 52605U 22052H   24180.19199671  .00001855  00000-0  13456-3 0  9998,2 52605  53.2121 184.9289 0001138  65.9508 294.1603 15.08857626117632,6917.827,95.436,540.479,538.904,0.0
52605.0,STARLINK-4000,PAYLOAD,2024-06-28 07:47:14,15.08861504,0.00011,53.2123,184.3348,74.9323,285.1791,0.00016886,2.402e-05,0.0,0 STARLINK-4000,1 52605U 22052H   24180.32447273  .00002402  00000-0  16886-3 0  9996,2 52605  53.2123 184.3348 0001100  74.9323 285.1791 15.08861504117287,6917.815,95.436,540.441,538.919,0.0
52605.0,STARLINK-4000,PAYLOAD,2024-06-29 04:27:15,15.08850205,0.0001149,53.2129,180.4705,99.0722,261.04,0.00012116,1.641e-05,0.0,0 STARLINK-4000,1 52605U 22052H   24181.18559372  .00001641  00000-0  12116-3 0  9991,2 52605  53.2129 180.4705 0001149  99.0722 261.0400 15.08850205117782,6917.849,95.437,540.509,538.919,0.0
52605.0,STARLINK-4000,PAYLOAD,2024-06-29 09:13:25,15.08839667,0.0001234,53.2134,179.5794,81.2675,278.8457,-3.9953e-05,-9.24e-06,0.0,0 STARLINK-4000,1 52605U 22052H   24181.38431862 -.00000924  00000-0 -39953-4 0  9990,2 52605  53.2134 179.5794 0001234  81.2675 278.8457 15.08839667117811,6917.881,95.438,540.6,538.893,0.0
52605.0,STARLINK-4000,PAYLOAD,2024-06-29 17:10:21,15.08838253,0.0001254,53.2145,178.0925,83.631,276.4825,8.8548e-07,-2.74e-06,0.0,0 STARLINK-4000,1 52605U 22052H   24181.71552355 -.00000274  00000-0  88548-6 0  9991,2 52605  53.2145 178.0925 0001254  83.6310 276.4825 15.08838253117494,6917.886,95.438,540.618,538.883,0.0
52605.0,STARLINK-4000,PAYLOAD,2024-06-30 04:18:03,15.08832557,9.2e-05,53.2144,176.0086,91.0455,269.0642,-0.00012821,-2.327e-05,0.0,0 STARLINK-4000,1 52605U 22052H   24182.17921010 -.00002327  00000-0 -12821-3 0  9990,2 52605  53.2144 176.0086 0000920  91.0455 269.0642 15.08832557117936,6917.903,95.438,540.405,539.132,0.0
52605.0,STARLINK-4000,PAYLOAD,2024-06-30 09:04:12,15.08839278,0.0001284,53.2148,175.1174,115.3462,244.7664,-0.00019151,-3.334e-05,0.0,0 STARLINK-4000,1 52605U 22052H   24182.37792782 -.00003334  00000-0 -19151-3 0  9996,2 52605  53.2148 175.1174 0001284 115.3462 244.7664 15.08839278117593,6917.883,95.438,540.636,538.859,0.0
52605.0,STARLINK-4000,PAYLOAD,2024-06-30 17:01:08,15.08840794,0.0001271,53.2151,173.6318,107.6648,252.4483,-0.00012579,-2.289e-05,0.0,0 STARLINK-4000,1 52605U 22052H   24182.70912545 -.00002289  00000-0 -12579-3 0  9999,2 52605  53.2151 173.6318 0001271 107.6648 252.4483 15.08840794118014,6917.878,95.438,540.622,538.864,0.0
52605.0,STARLINK-4000,PAYLOAD,2024-07-01 05:44:13,15.08833605,0.0001291,53.2154,171.2526,89.0805,271.0335,7.6545e-05,9.3e-06,0.0,0 STARLINK-4000,1 52605U 22052H   24183.23904589  .00000930  00000-0  76545-4 0  9990,2 52605  53.2154 171.2526 0001291  89.0805 271.0335 15.08833605117725,6917.9,95.438,540.658,538.872,0.0
52605.0,STARLINK-4000,PAYLOAD,2024-07-02 05:35:00,15.08833591,0.0001278,53.2153,166.7919,88.8277,271.2862,0.00013779,1.905e-05,0.0,0 STARLINK-4000,1 52605U 22052H   24184.23264848  .00001905  00000-0  13779-3 0  9990,2 52605  53.2153 166.7919 0001278  88.8277 271.2862 15.08833591118243,6917.9,95.438,540.649,538.881,0.0
52605.0,STARLINK-4000,PAYLOAD,2024-07-02 08:45:47,15.0883532,0.000128,53.2154,166.1976,87.9454,272.1684,0.00011874,1.602e-05,0.0,0 STARLINK-4000,1 52605U 22052H   24184.36512864  .00001602  00000-0  11874-3 0  9996,2 52605  53.2154 166.1976 0001280  87.9454 272.1684 15.08835320117895,6917.895,95.438,540.645,538.874,0.0
52605.0,STARLINK-4000,PAYLOAD,2024-07-03 08:36:34,15.08834162,0.0001326,53.2158,161.7367,89.0085,271.1059,-3.7297e-07,-2.94e-06,0.0,0 STARLINK-4000,1 52605U 22052H   24185.35873573 -.00000294  00000-0 -37297-6 0  9991,2 52605  53.2158 161.7367 0001326  89.0085 271.1059 15.08834162118415,6917.898,95.438,540.681,538.846,0.0
52605.0,STARLINK-4000,PAYLOAD,2024-07-03 14:58:06,15.08839593,0.0001381,53.2165,160.5485,89.2261,270.8889,3.5205e-05,2.72e-06,0.0,0 STARLINK-4000,1 52605U 22052H   24185.62369138  .00000272  00000-0  35205-4 0  9997,2 52605  53.2165 160.5485 0001381  89.2261 270.8889 15.08839593118454,6917.882,95.438,540.702,538.791,0.0
52605.0,STARLINK-4000,PAYLOAD,2024-07-04 08:27:21,15.08839216,0.0001415,53.2164,157.2791,96.3599,263.7554,2.8098e-05,1.59e-06,0.0,0 STARLINK-4000,1 52605U 22052H   24186.35233250  .00000159  00000-0  28098-4 0  9999,2 52605  53.2164 157.2791 0001415  96.3599 263.7554 15.08839216118190,6917.883,95.438,540.727,538.769,0.0
52605.0,STARLINK-4000,PAYLOAD,2024-07-04 14:48:53,15.08842866,0.0001469,53.2172,156.0896,95.0736,265.0424,3.7587e-05,3.1e-06,0.0,0 STARLINK-4000,1 52605U 22052H   24186.61728999  .00000310  00000-0  37587-4 0  9999,2 52605  53.2172 156.0896 0001469  95.0736 265.0424 15.08842866118231,6917.872,95.437,540.753,538.72,0.0
52605.0,STARLINK-4000,PAYLOAD,2024-07-05 05:07:22,15.08837846,0.0001562,53.2159,153.4152,105.7914,254.3251,2.5542e-05,1.18e-06,0.0,0 STARLINK-4000,1 52605U 22052H   24187.21345548  .00000118  00000-0  25542-4 0  9995,2 52605  53.2159 153.4152 0001562 105.7914 254.3251 15.08837846118694,6917.887,95.438,540.833,538.671,0.0
52605.0,STARLINK-4000,PAYLOAD,2024-07-05 06:42:45,15.08835782,0.0001555,53.2157,153.1182,100.3808,259.7359,6.0156e-05,6.69e-06,0.0,0 STARLINK-4000,1 52605U 22052H   24187.27969600  .00000669  00000-0  60156-4 0  9993,2 52605  53.2157 153.1182 0001555 100.3808 259.7359 15.08835782118333,6917.893,95.438,540.834,538.683,0.0
52605.0,STARLINK-4000,PAYLOAD,2024-07-05 14:39:41,15.08840356,0.0001458,53.2157,151.6296,98.7921,261.3236,5.5739e-05,5.99e-06,0.0,0 STARLINK-4000,1 52605U 22052H   24187.61089335  .00000599  00000-0  55739-4 0  9992,2 52605  53.2157 151.6296 0001458  98.7921 261.3236 15.08840356118381,6917.879,95.438,540.753,538.736,0.0
52605.0,STARLINK-4000,PAYLOAD,2024-07-06 03:22:47,15.08835991,0.0001454,53.2163,149.2508,97.2587,262.8571,-6.0339e-05,-1.248e-05,0.0,0 STARLINK-4000,1 52605U 22052H   24188.14082220 -.00001248  00000-0 -60339-4 0  9993,2 52605  53.2163 149.2508 0001454  97.2587 262.8571 15.08835991118832,6917.893,95.438,540.764,538.752,0.0
52605.0,STARLINK-4000,PAYLOAD,2024-07-06 06:33:32,15.08838665,0.0001454,53.217,148.6548,92.2918,267.8241,4.485e-06,-2.17e-06,0.0,0 STARLINK-4000,1 52605U 22052H   24188.27329819 -.00000217  00000-0  44850-5 0  9990,2 52605  53.2170 148.6548 0001454  92.2918 267.8241 15.08838665118481,6917.884,95.438,540.755,538.744,0.0
52605.0,STARLINK-4000,PAYLOAD,2024-07-06 14:30:28,15.08845947,0.0001567,53.2179,147.1672,85.1345,274.9826,3.8026e-05,3.17e-06,0.0,0 STARLINK-4000,1 52605U 22052H   24188.60449236  .00000317  00000-0  38026-4 0  9990,2 52605  53.2179 147.1672 0001567  85.1345 274.9826 15.08845947118908,6917.862,95.437,540.811,538.643,0.0
52605.0,STARLINK-4000,PAYLOAD,2024-07-07 04:48:57,15.08836784,0.0001385,53.2153,144.4917,91.346,268.7691,-1.137e-06,-3.06e-06,0.0,0 STARLINK-4000,1 52605U 22052H   24189.20065998 -.00000306  00000-0 -11370-5 0  9990,2 52605  53.2153 144.4917 0001385  91.3460 268.7691 15.08836784118996,6917.89,95.438,540.713,538.797,0.0
52605.0,STARLINK-4000,PAYLOAD,2024-07-08 06:15:06,15.08846226,0.0001288,53.2156,139.7327,99.5918,260.5219,8.417e-05,1.052e-05,0.0,0 STARLINK-4000,1 52605U 22052H   24190.26049055  .00001052  00000-0  84170-4 0  9998,2 52605  53.2156 139.7327 0001288  99.5918 260.5219 15.08846226119158,6917.861,95.437,540.617,538.835,0.0
52605.0,STARLINK-4000,PAYLOAD,2024-07-09 02:55:07,15.08838683,0.0001637,53.2179,135.8636,106.2428,253.8745,6.7671e-05,7.89e-06,0.0,0 STARLINK-4000,1 52605U 22052H   24191.12161509  .00000789  00000-0  67671-4 0  9996,2 52605  53.2179 135.8636 0001637 106.2428 253.8745 15.08838683119284,6917.884,95.438,540.882,538.617,0.0
52605.0,STARLINK-4000,PAYLOAD,2024-07-10 02:45:55,15.0883518,0.0001185,53.2151,131.4094,89.4934,270.6194,-4.1422e-05,-9.47e-06,0.0,0 STARLINK-4000,1 52605U 22052H   24192.11522279 -.00000947  00000-0 -41422-4 0  9995,2 52605  53.2151 131.4094 0001185  89.4934 270.6194 15.08835180119437,6917.895,95.438,540.58,538.94,0.0
